SAUDISAT 1C (SO-50)     
1 27607U 02058C   26177.12374630  .00000891  00000+0  12242-3 0  9997
2 27607  64.5520 101.3361 0075052 260.8049  98.4562 14.83064330265783
SAUDISAT 2              
1 28371U 04025F   26176.95854909  .00000241  00000+0  64876-4 0  9994
2 28371  98.5508 177.1672 0023442 269.9228  89.9283 14.56688467167022
SAUDISAT 3              
1 31118U 07012B   26176.82695600  .00000238  00000+0  46632-4 0  9999
2 31118  98.1457 127.2332 0014209 194.8423 165.2368 14.71430111 29013
PISAT                   
1 41784U 16059B   26176.99901235  .00000862  00000+0  15416-3 0  9990
2 41784  97.8179 177.0732 0029119 174.3760 185.7778 14.68997282521034
FLYING LAPTOP           
1 42831U 17042G   26177.18415558  .00003622  00000+0  28561-3 0  9999
2 42831  97.4724 332.3729 0019970  92.9950 267.3560 15.01200003487800
SALSAT                  
1 46495U 20068K   26176.97551410  .00008659  00000+0  30155-3 0  9992
2 46495  97.8851 180.5757 0007809 270.5499  89.4845 15.29916367316705
