OBJECT_NAME,OBJECT_ID,EPOCH,MEAN_MOTION,ECCENTRICITY,INCLINATION,RA_OF_ASC_NODE,ARG_OF_PERICENTER,MEAN_ANOMALY,EPHEMERIS_TYPE,CLASSIFICATION_TYPE,NORAD_CAT_ID,ELEMENT_SET_NO,REV_AT_EPOCH,BSTAR,MEAN_MOTION_DOT,MEAN_MOTION_DDOT
SAUDISAT 1C (SO-50),2002-058C,2026-06-26T02:58:11.680320,14.83064330,.0075052,64.5520,101.3361,260.8049,98.4562,0,U,27607,999,26578,.12242E-3,.891E-5,0
SAUDISAT 2,2004-025F,2026-06-25T23:00:18.641376,14.56688467,.0023442,98.5508,177.1672,269.9228,89.9283,0,U,28371,999,16702,.64876E-4,.241E-5,0
SAUDISAT 3,2007-012B,2026-06-25T19:50:48.998400,14.71430111,.0014209,98.1457,127.2332,194.8423,165.2368,0,U,31118,999,2901,.46632E-4,.238E-5,0
PISAT,2016-059B,2026-06-25T23:58:34.667040,14.68997282,.0029119,97.8179,177.0732,174.3760,185.7778,0,U,41784,999,52103,.15416E-3,.862E-5,0
FLYING LAPTOP,2017-042G,2026-06-26T04:25:11.042112,15.01200003,.001997,97.4724,332.3729,92.9950,267.3560,0,U,42831,999,48780,.28561E-3,.3622E-4,0
SALSAT,2020-068K,2026-06-25T23:24:44.418240,15.29916367,.0007809,97.8851,180.5757,270.5499,89.4845,0,U,46495,999,31670,.30155E-3,.8659E-4,0
